SINOD-D 3               
1 40977U 15058P   25103.61969623  .00010620  00000+0  88079-3 0  9992
2 40977  64.7731 172.8445 0160769 216.0198 142.9998 14.89629289 50672
APSTAR-9                
1 40982U 15059A   25103.92033199 -.00000258  00000+0  00000+0 0  9994
2 40982   0.0398 356.3681 0001114  24.4043 294.9059  1.00273422 34849
TURKSAT 4B              
1 40984U 15060A   25103.90669618  .00000122  00000+0  00000+0 0  9996
2 40984   0.0124 188.3628 0002301 203.8950 186.4775  1.00270443 34795
TIANHUI 1-03            
1 40988U 15061A   25104.19978607  .00101014  00000+0  10109-2 0  9990
2 40988  97.5015 249.1279 0002265 291.5807  68.5210 15.65242786527472
NAVSTAR 75 (USA 265)    
1 41019U 15062A   25103.50521640 -.00000072  00000+0  00000+0 0  9991
2 41019  56.6507  47.4132 0102872 228.6693 130.4226  2.00566773 69215
ZHONGXING-2C            
1 41021U 15063A   25103.88308575 -.00000316  00000+0  00000+0 0  9997
2 41021   0.2359  93.7009 0002595  13.4346 156.4770  1.00269393 34694
YAOGAN-28               
1 41026U 15064A   25104.17322877  .00015031  00000+0  63027-3 0  9998
2 41026  97.2488 249.5772 0012556 240.0326 119.9666 15.23521055525318
GSAT-15                 
1 41028U 15065A   25103.83935948 -.00000251  00000+0  00000+0 0  9999
2 41028   0.0448  73.4814 0003292 334.3751 190.0654  1.00270588 34498
BADR-7 (ARABSAT-6B)     
1 41029U 15065B   25103.92891954  .00000152  00000+0  00000+0 0  9997
2 41029   0.0305 229.0205 0002623  24.5816 309.1475  1.00271280 34462
COSMOS 2510             
1 41032U 15066A   25102.80338371 -.00001208  00000+0  00000+0 0  9991
2 41032  63.0554  45.7444 7171332 273.1183  14.6291  2.00301192 68838
LAOSAT 1                
1 41034U 15067A   25104.20321444 -.00000334  00000+0  00000+0 0  9992
2 41034   0.0154 276.0952 0002184  74.2121  53.9712  1.00274491 34548
TELSTAR 12V             
1 41036U 15068A   25104.17480455 -.00000111  00000+0  00000+0 0  9992
2 41036   0.0205 123.8193 0002670 260.6487 226.0536  1.00272055 34427
YAOGAN-29               
1 41038U 15069A   25104.21045265  .00001049  00000+0  13718-3 0  9990
2 41038  98.0396 126.3161 0001649  35.7951 324.3372 14.82554572507057
ELEKTRO-L 2             
1 41105U 15074A   25103.74651987 -.00000106  00000+0  00000+0 0  9992
2 41105   5.6090  75.7943 0002185 240.2990 140.3280  1.00273283 34203
COSMOS 2513             
1 41121U 15075A   25103.90808185 -.00000131  00000+0  00000+0 0  9991
2 41121   0.0569  93.0899 0003206 323.7471 192.6638  1.00272211 34230
VELOX-CI                
1 41166U 15077A   25103.33905530  .00025422  00000+0  72712-3 0  9993
2 41166  14.9810 129.6291 0006697 114.2153 245.8870 15.33627190516315
KENT RIDGE 1            
1 41167U 15077B   25103.65508148  .00007535  00000+0  31045-3 0  9992
2 41167  14.9793 211.5411 0008946 314.4830  45.4760 15.19473847515588
TELEOS-1                
1 41169U 15077D   25103.94943688  .00159774  00000+0  12574-2 0  9996
2 41169  14.9789  20.1139 0004744 306.2566  53.7324 15.69507187517448
DAMPE                   
1 41173U 15078A   25104.14009320  .00002738  00000+0  99111-4 0  9992
2 41173  97.4480 103.2148 0013232 150.3768 209.8224 15.29207120518943
GSAT0209 (GALILEO 12)   
1 41174U 15079A   25102.48613779  .00000055  00000+0  00000+0 0  9992
2 41174  55.5730 113.0869 0005448 315.2462  44.7516  1.70474478 57434
GSAT0208 (GALILEO 11)   
1 41175U 15079B   25103.87925368  .00000055  00000+0  00000+0 0  9997
2 41175  55.5726 113.0460 0004833 315.6838  44.3114  1.70474402 58039
ORBCOMM FM114           
1 41179U 15081A   25103.79940659  .00001664  00000+0  39436-3 0  9991
2 41179  47.0019 230.9420 0001251  46.0851 314.0137 14.58099736495074
ORBCOMM FM110           
1 41182U 15081D   25103.70742786  .00002197  00000+0  51063-3 0  9999
2 41182  47.0008 230.7523 0002693 236.6349 123.4279 14.57956372494938
ORBCOMM FM118           
1 41183U 15081E   25103.82938644  .00002195  00000+0  50900-3 0  9990
2 41183  47.0033 230.6357 0003185 214.4614 145.6065 14.58057430495058
ORBCOMM FM112           
1 41184U 15081F   25104.10342758  .00001292  00000+0  31523-3 0  9995
2 41184  46.9978 137.9577 0000534  22.3450 337.7459 14.57968843496361
ORBCOMM FM113           
1 41185U 15081G   25103.46359064  .00001410  00000+0  34044-3 0  9995
2 41185  46.9993 141.2951 0000134  16.8515 343.2375 14.58005781496205
ORBCOMM FM108           
1 41187U 15081J   25103.89604409  .00001830  00000+0  43115-3 0  9995
2 41187  47.0047  50.5588 0002828   1.7101 358.3794 14.57992730497417
ORBCOMM FM117           
1 41188U 15081K   25104.20499151  .00001948  00000+0  45645-3 0  9998
2 41188  47.0011  47.8844 0003128  12.9738 347.1228 14.58001940497555
ORBCOMM FM116           
1 41189U 15081L   25103.78501173  .00001427  00000+0  34400-3 0  9998
2 41189  47.0007 139.7372 0000361 136.4812 223.6102 14.58024856496255
EXPRESS-AMU1            
1 41191U 15082A   25103.97550572  .00000163  00000+0  00000+0 0  9991
2 41191   0.0193 234.1100 0003104 143.2631 212.3045  1.00269442 33966
GAOFEN-4                
1 41194U 15083A   25104.11017044 -.00000327  00000+0  00000+0 0  9997
2 41194   0.0545  18.3293 0001300  14.8451 314.7235  1.00271115 34198
BELINTERSAT-1           
1 41238U 16001A   25103.90669618  .00000114  00000+0  00000+0 0  9996
2 41238   0.0385  62.1059 0001163 187.1751 330.9630  1.00274267 33931
JASON-3                 
1 41240U 16002A   25103.90289920 -.00000028  00000+0  14520-3 0  9995
2 41240  66.0416 306.9758 0007623 272.7473  87.2670 12.80930023432012
EUTELSAT 9B             
1 41310U 16005A   25104.17891963  .00000070  00000+0  00000+0 0  9992
2 41310   0.0776  70.4872 0003669 283.5079 282.0106  1.00273912 33805
NAVSTAR 76 (USA 266)    
1 41328U 16007A   25102.59275432  .00000042  00000+0  00000+0 0  9993
2 41328  55.2675 106.5504 0087595 242.2525 116.8846  2.00572982 67201
COSMOS 2514 [GLONASS-M] 
1 41330U 16008A   25103.91193429 -.00000046  00000+0  00000+0 0  9994
2 41330  65.2647 327.7048 0008649 205.0619 154.9508  2.13102938 71474
SENTINEL-3A             
1 41335U 16011A   25104.16190376  .00000324  00000+0  15172-3 0  9997
2 41335  98.6291 172.6557 0000999  91.0250 269.1044 14.26735551476888
HORYU-4                 
1 41340U 16012D   25104.18691726  .00033952  00000+0  99859-3 0  9998
2 41340  30.9950 150.4071 0008736 190.3952 169.6513 15.33842639504117
SES-9                   
1 41380U 16013A   25103.91364220 -.00000338  00000+0  00000+0 0  9998
2 41380   0.0143 284.0077 0002120 133.7433 221.7916  1.00271603 33131
EUTELSAT 65 WEST A      
1 41382U 16014A   25104.22128075 -.00000268  00000+0  00000+0 0  9994
2 41382   0.0673 321.4794 0002222  64.2252 191.4128  1.00272869 33349
IRNSS-1F                
1 41384U 16015A   25103.97179966  .00000169  00000+0  00000+0 0  9992
2 41384   4.2828 107.8899 0018993 189.1383 287.6737  1.00272048 33360
COSMOS 2515             
1 41394U 16020A   25104.17648360  .00004185  00000+0  29089-3 0  9995
2 41394  97.9749  99.0823 0023043 314.9615  44.9742 15.05904229495803
BEIDOU-2 IGSO-6         
1 41434U 16021A   25099.61122961 -.00000157  00000+0  00000+0 0  9991
2 41434  59.6168  42.3641 0052597 230.3227 239.0707  1.00258086 33138
IRNSS-1G                
1 41469U 16027A   25103.91789934 -.00000324  00000+0  00000+0 0  9999
2 41469   4.1454 108.8223 0006603 324.5585 228.9353  1.00273344 32871
JCSAT-2B                
1 41471U 16028A   25104.21364104 -.00000157  00000+0  00000+0 0  9999
2 41471   0.0183 223.8718 0001143 176.4223  33.2592  1.00270746 32787
YAOGAN-30 01            
1 41473U 16029A   25104.18007308  .00001641  00000+0  24316-3 0  9996
2 41473  97.9609 156.7522 0017414 170.4410 189.7135 14.76372305480366
GSAT0211 (GALILEO 14)   
1 41549U 16030A   25101.65659782 -.00000025  00000+0  00000+0 0  9996
2 41549  55.2416 233.5617 0002565  13.7254 346.2263  1.70474105 55314
GSAT0210 (GALILEO 13)   
1 41550U 16030B   25102.50097067 -.00000020  00000+0  00000+0 0  9990
2 41550  55.2413 233.5367 0002013 203.5336 156.4055  1.70474101 55320
THAICOM 8               
1 41552U 16031A   25104.12198131 -.00000114  00000+0  00000+0 0  9991
2 41552   0.0654  34.7779 0004699 347.5063 302.6889  1.00272823 32485
ZIYUAN 3-2 (ZY 3-2)     
1 41556U 16033A   25104.21039172  .00012340  00000+0  55138-3 0  9995
2 41556  97.4214 182.0624 0006039 350.6440   9.4682 15.21464549492761
COSMOS 2517 (GEO-IK 2)  
1 41579U 16034A   25104.16852454  .00000047  00000+0  78908-4 0  9993
2 41579  99.1967 115.9511 0001089  80.9616 279.1663 13.85904984448203
INTELSAT 31 (IS-31)     
1 41581U 16035A   25103.48864181 -.00000144  00000+0  00000+0 0  9993
2 41581   0.0080 223.2750 0001987   6.1682  53.3182  1.00271935 32373
BEIDOU-2 G7             
1 41586U 16037A   25103.91407660 -.00000345  00000+0  00000+0 0  9996
2 41586   1.6081  68.0229 0010199 336.3152 237.4769  1.00278306  2582
ABS-2A (MONGOLSAT-1)    
1 41588U 16038A   25103.96783139 -.00000076  00000+0  00000+0 0  9993
2 41588   0.0116 224.2750 0001704 108.2576 292.9966  1.00270573 32406
EUTELSAT 117 WEST B     
1 41589U 16038B   25103.65472135 -.00000005  00000+0  00000+0 0  9993
2 41589   0.0148  72.7511 0000344 214.5635  33.4677  1.00271383 32350
BRISAT                  
1 41591U 16039A   25103.90198935 -.00000189  00000+0  00000+0 0  9991
2 41591   0.0172 246.9154 0002180 135.5537 295.0775  1.00271524 32308
ECHOSTAR 18             
1 41592U 16039B   25103.88001949 -.00000274  00000+0  00000+0 0  9992
2 41592   0.0153 211.5529 0001550 181.8887  64.2977  1.00269272 32312
CARTOSAT-2C             
1 41599U 16040A   25104.15496550  .00008823  00000+0  42079-3 0  9991
2 41599  97.4278 165.2682 0013249 184.6365 175.4749 15.19246264488578
SKYSAT-C1               
1 41601U 16040C   25104.00516885  .00014363  00000+0  50077-3 0  9996
2 41601  97.0126 154.8963 0004701 104.0842 256.0923 15.29717457492152
LAPAN-A3                
1 41603U 16040E   25104.17622670  .00006585  00000+0  23340-3 0  9996
2 41603  97.1387 111.0113 0013136 108.0587 252.2087 15.29332346489164
